#aV2024  6  3  0  0  0.00000000     288 DD+AD WGS84 FIT  NGA
## 2317  86400.00000000   300.00000000 60464 0.0000000000000
+   31     2  3  4  5  6  7  8  9 10 11 12 13 14 15 16 17 18
+         19 20 21 22 23 24 25 26 27 28 29 30 31 32  0  0  0
+          0  0  0  0  0  0  0  0  0  0  0  0  0  0  0  0  0
+          0  0  0  0  0  0  0  0  0  0  0  0  0  0  0  0  0
+          0  0  0  0  0  0  0  0  0  0  0  0  0  0  0  0  0
++         2  2  2  2  2  2  2  2  2  2  2  2  2  2  2  2  2
++         2  2  2  2  2  2  2  2  2  2  2  2  2  2  0  0  0
++         0  0  0  0  0  0  0  0  0  0  0  0  0  0  0  0  0
++         0  0  0  0  0  0  0  0  0  0  0  0  0  0  0  0  0
++         0  0  0  0  0  0  0  0  0  0  0  0  0  0  0  0  0
%c cc cc ccc ccc cccc cccc cccc cccc ccccc ccccc ccccc ccccc
%c cc cc ccc ccc cccc cccc cccc cccc ccccc ccccc ccccc ccccc
%f  0.0000000  0.000000000  0.00000000000  0.000000000000000
%f  0.0000000  0.000000000  0.00000000000  0.000000000000000
%i    0    0    0    0      0      0      0      0         0
%i    0    0    0    0      0      0      0      0         0
/*      NGA, ST. LOUIS,MO.                                  
/*   EPHEMERIS COMPUTED FROM 2 DAYS OF DATA                 
/*   EPOCHA v9 SMOOTHER                                     
/*   G2296 IERS2010 SATIGS SATAPC                           
*  2024  6  3 21 25  0.00000000
P  2 -11079.564907  20183.221684 -12502.652493   -424.317510                    
V  2 -14540.126197   8668.973525  26185.599586      0.069522                    
P  3   1704.269369  16339.328799 -21056.375272    396.295411                    
V  3 -23911.997759 -10906.219540 -10357.640131      0.185617                    
P  4  -1528.777585  26163.549961  -3825.244793    375.496308                    
V  4  -2977.279972  -4772.340349 -31435.282398      0.082077                    
P  5  14383.940523  -8972.025241  20288.406735   -175.052522                    
V  5  23715.477147  10963.908178 -11774.692747     -0.013380                    
P  6  21363.400992  -1821.712447 -15687.105349    238.251540                    
V  6 -15882.837226  12106.541114 -22840.510684     -0.206338                    
P  7   7995.147998  13525.040267  21918.287660   -103.935506                    
V  7 -22189.199544  14800.255023  -1529.584859      0.125028                    
P  8  -7322.861582  21313.820700  13598.983139    212.220431                    
V  8  -4660.487394 -17225.520796  24709.920700      0.189014                    
P  9   8037.414937  23999.637699   7884.298839    221.084670                    
V  9  -1706.828385  10368.319726 -29567.700883      0.143983                    
P 10 -24448.552982 -10708.783911  -1379.894899    -35.420914                    
V 10  -1012.795080  -2476.239050  31995.498030     -0.076447                    
P 11  23606.128349 -11484.702634  -3821.365429   -677.594916                    
V 11  -2756.574070   4832.342038 -31414.676632     -0.085374                    
P 12   1722.340838 -16095.099792 -21347.920227   -511.045316                    
V 12  23305.442954  12497.809356  -7594.169914     -0.032380                    
P 13  13193.993715 -14051.135919  17959.932163    655.396580                    
V 13    118.806074  23343.171898  18196.237964      0.027442                    
P 14  23036.780307  13312.762429   1979.665318    416.789451                    
V 14  -3592.367809   1635.820913  31154.760222      0.091825                    
P 15   4578.814978 -22332.404574  12968.249421    166.217225                    
V 15   7041.367728  16236.450629  24729.293767      0.041689                    
P 16 -17925.850101   4685.512794  18860.706494   -274.083135                    
V 16 -20490.523982 -13486.438767 -15411.698811      0.102951                    
P 17  12694.360352  14075.794680 -18121.355217    699.396479                    
V 17  -1194.664998  23930.980084  17509.469953     -0.047641                    
P 18  -8007.767221 -12593.754698  21980.125521   -620.124218                    
V 18  23311.609124 -15223.197975   -423.126497     -0.052237                    
P 19  14845.206591   4661.924488 -21744.221163    491.356799                    
V 19   -946.905996  27103.678605   4819.156439      0.053776                    
P 20  22124.844091  -4203.261424  14026.881655    374.224420                    
V 20  16503.005590   7039.269818 -24169.668131     -0.009763                    
P 21 -14905.853046  19614.482711  -8002.891700    117.677575                    
V 21 -10752.862288   4344.233961  30109.966961     -0.023222                    
P 22  23858.033415   9422.935359  -5851.930761    -22.572696                    
V 22   5371.448050   6684.405627  30775.902126     -0.050430                    
P 23 -19044.530487 -15783.347282   9966.995726    241.628150                    
V 23  12192.894885   3423.773085  28591.751756      0.092535                    
P 24  11615.417886 -20893.334076 -11545.253223   -475.124210                    
V 24  13031.872317  -6619.743498  26454.360998     -0.028873                    
P 25  -9259.913259 -18051.581511 -17612.739771    496.813509                    
V 25  20350.815388   7522.288307 -18513.444056      0.005868                    
P 26 -25157.248272  -2907.248926   8447.490295    142.762243                    
V 26  -9019.224613  -6854.247023 -28335.489779     -0.060380                    
P 27 -13024.618338  10992.460503  19966.886446    -26.856877                    
V 27  -3547.514278 -25908.751801  12191.399993     -0.015201                    
P 28 -20244.981568    -38.468670 -17201.955362   -272.858206                    
V 28  16565.870467 -14311.447697 -19477.028253     -0.169927                    
P 29  -3845.705702 -25611.442834   5544.472836   -595.775577                    
V 29   2500.539503  -7129.456261 -31018.037113      0.015814                    
P 30  17580.635534   5332.227777  19417.787286   -380.027405                    
V 30 -19315.942808  14890.690604  13234.179383      0.060591                    
P 31 -23983.963777   8360.409935  -8639.975504   -227.577857                    
V 31   7517.581229  -7822.142377 -28777.231364      0.001646                    
P 32 -14379.029431 -11303.132069 -19115.997913   -617.179801                    
V 32   -904.531444 -24676.735945  14908.664710      0.008678                    
EOF
